STARLINK-5328           
1 55657U 23021AF  26068.64361641 -.00000433  00000+0 -28470-4 0  9995
2 55657  70.0005 164.7339 0003409 271.1096  88.9673 14.98333056169275
QPS-SAR-12 (KUSHINADA-I)
1 65116U 25169A   26068.45165888  .00007038  00000+0  57220-3 0  9995
2 65116  42.0102 204.8332 0007793 277.3009  82.6931 14.99881586 32436
